STARLINK-2022           
1 47643U 21012Z   24182.59349235  .00006062  00000+0  42563-3 0  9993
2 47643  53.0540 301.8687 0001240  92.8398 267.2733 15.06387789186731
